SVOM                    
1 60089U 24116B   26178.11907744  .00001441  00000+0  15607-3 0  9995
2 60089  28.9966  54.7235 0005238 138.8536 221.2453 14.83558440109071
STARLINK-31441          
1 60091U 24117A   26177.93536204 -.00000804  00000+0 -15031-4 0  9993
2 60091  53.1592 249.6089 0001133  75.9701 284.1426 15.30183341113616
STARLINK-32044          
1 60092U 24117B   26177.91530992  .00000166  00000+0  17748-4 0  9996
2 60092  53.1592 249.4804 0001187  88.6879 271.4258 15.30176921113614
STARLINK-31239          
1 60093U 24117C   26177.91668980  .00005474  00000+0  17312-3 0  9999
2 60093  53.1590 249.8728 0000979  94.9810  72.6814 15.34379968  5816
STARLINK-32007          
1 60094U 24117D   26177.91153943 -.00000668  00000+0 -86363-5 0  9994
2 60094  53.1590 249.4620 0000991  81.6504 278.4611 15.34382072113610
STARLINK-32028          
1 60095U 24117E   26178.16670139  .00058331  00000+0  17247-2 0  9994
2 60095  53.1603 248.4738 0001181  82.5076 143.1815 15.34390083  5852
STARLINK-32016          
1 60096U 24117F   26178.16670139  .00039900  00000+0  12192-2 0  9990
2 60096  53.1590 248.8175 0001192 104.1153 307.3319 15.33520220  5867
STARLINK-32003          
1 60097U 24117G   26177.93113760 -.00000336  00000+0  78267-6 0  9998
2 60097  53.1595 249.5798 0001246  84.7665 275.3477 15.30180280113610
STARLINK-32026          
1 60098U 24117H   26178.16670139  .00862981  00000+0  24057-1 0  9997
2 60098  53.1602 248.5387 0000956  23.8625 167.7679 15.33658493  5707
STARLINK-31732          
1 60099U 24117J   26177.90792216 -.00001040  00000+0 -23016-4 0  9990
2 60099  53.1604 249.4321 0000971 103.1221 256.9888 15.30188870113616
STARLINK-31996          
1 60100U 24117K   26178.16670139  .00046508  00000+0  14176-2 0  9992
2 60100  53.1596 248.3006 0001036  91.7314 219.8341 15.33528023  5708
STARLINK-31999          
1 60101U 24117L   26177.91668980 -.00010090  00000+0 -29577-3 0  9997
2 60101  53.1584 249.9358 0001178 102.6548  32.3010 15.33558142  5875
STARLINK-31954          
1 60102U 24117M   26177.89537334 -.00001293  00000+0 -31542-4 0  9994
2 60102  53.1595 250.0686 0001097  86.2862 273.8264 15.30196053113601
STARLINK-32013          
1 60103U 24117N   26177.89220269 -.00001457  00000+0 -37078-4 0  9993
2 60103  53.1592 250.0485 0000992  90.0512 270.0603 15.30194687113601
STARLINK-32009          
1 60104U 24117P   26177.81492421  .00000144  00000+0  15400-4 0  9992
2 60104  53.1589 250.2512 0001287  60.2907 299.8223 15.34377745113593
STARLINK-32018          
1 60105U 24117Q   26177.92416078 -.00001506  00000+0 -33455-4 0  9994
2 60105  53.1591 249.5372 0001224  92.6945 267.4197 15.34383627113614
STARLINK-32045          
1 60106U 24117R   26177.91783773  .00009520  00000+0  29251-3 0  9993
2 60106  53.1600 249.4983 0001120  97.6791 262.4338 15.34404041113618
STARLINK-32035          
1 60107U 24117S   26178.16670139  .00040359  00000+0  13680-2 0  9996
2 60107  53.1589 248.5526 0001174  95.1645  88.4039 15.30185151  5548
STARLINK-32042          
1 60108U 24117T   26177.92797487 -.00001512  00000+0 -38954-4 0  9999
2 60108  53.1590 249.5564 0000978  94.8002 265.3111 15.30180450113610
STARLINK-32040          
1 60109U 24117U   26177.91003146  .00001731  00000+0  70598-4 0  9992
2 60109  53.1599 249.4514 0001165  98.0743 262.0390 15.30173408113619
STARLINK-32001          
1 60110U 24117V   26178.16670139  .00110611  00000+0  32548-2 0  9993
2 60110  53.1591 248.2839 0002709 118.7635 200.1832 15.34225072  5753
STARLINK-32015          
1 60111U 24117W   26177.91215230 -.00002555  00000+0 -74251-4 0  9991
2 60111  53.1593 249.4551 0000983  98.3570 261.7542 15.30172607113610
STARLINK-32024          
1 60112U 24117X   26177.92480948 -.00000943  00000+0 -19737-4 0  9990
2 60112  53.1606 249.5345 0001261 102.0310 258.0832 15.30183374113617
STARLINK-11201 [DTC]    
1 60113U 24118A   26177.91196757 -.00000865  00000+0 -22815-5 0  9998
2 60113  53.1591  43.1496 0000867  75.6715 284.4399 15.69712964115147
STARLINK-11198 [DTC]    
1 60114U 24118B   26177.90706900 -.00000777  00000+0 -15638-5 0  9992
2 60114  53.1585  43.1175 0000556  96.8593 263.2488 15.69710111115145
STARLINK-11112 [DTC]    
1 60115U 24118C   26177.90215675  .00000656  00000+0  10276-4 0  9993
2 60115  53.1581  43.0851 0000726  58.5476 301.5613 15.69697340115140
STARLINK-11210 [DTC]    
1 60116U 24118D   26177.89725291 -.00001380  00000+0 -65368-5 0  9992
2 60116  53.1611  43.0565 0000779  67.4597 292.6504 15.69713345115141
STARLINK-11203 [DTC]    
1 60117U 24118E   26177.89234650 -.00000590  00000+0 -13540-7 0  9996
2 60117  53.1591  43.0202 0000714 114.8284 245.2808 15.69709922115143
STARLINK-11177 [DTC]    
1 60118U 24118F   26177.88744438 -.00000362  00000+0  18659-5 0  9996
2 60118  53.1584  42.9871 0000837  82.9252 277.1861 15.69705615115140
STARLINK-11127 [DTC]    
1 60119U 24118G   26177.88253492 -.00000742  00000+0 -12798-5 0  9993
2 60119  53.1592  42.9529 0000270 291.5744  68.5245 15.69702859115140
