OBJECT_NAME,OBJECT_ID,EPOCH,MEAN_MOTION,ECCENTRICITY,INCLINATION,RA_OF_ASC_NODE,ARG_OF_PERICENTER,MEAN_ANOMALY,EPHEMERIS_TYPE,CLASSIFICATION_TYPE,NORAD_CAT_ID,ELEMENT_SET_NO,REV_AT_EPOCH,BSTAR,MEAN_MOTION_DOT,MEAN_MOTION_DDOT
SVOM,2024-116B,2026-06-27T02:51:28.290816,14.83558440,.0005238,28.9966,54.7235,138.8536,221.2453,0,U,60089,999,10907,.15607E-3,.1441E-4,0
STARLINK-31441,2024-117A,2026-06-26T22:26:55.280256,15.30183341,.0001133,53.1592,249.6089,75.9701,284.1426,0,U,60091,999,11361,-.15031E-4,-.804E-5,0
STARLINK-32044,2024-117B,2026-06-26T21:58:02.777088,15.30176921,.0001187,53.1592,249.4804,88.6879,271.4258,0,U,60092,999,11361,.17748E-4,.166E-5,0
STARLINK-31239,2024-117C,2026-06-26T22:00:01.998720,15.34379968,.0000979,53.1590,249.8728,94.9810,72.6814,0,U,60093,999,581,.17312E-3,.5474E-4,0
STARLINK-32007,2024-117D,2026-06-26T21:52:37.006752,15.34382072,.0000991,53.1590,249.4620,81.6504,278.4611,0,U,60094,999,11361,-.86363E-5,-.668E-5,0
STARLINK-32028,2024-117E,2026-06-27T04:00:03.000096,15.34390083,.0001181,53.1603,248.4738,82.5076,143.1815,0,U,60095,999,585,.17247E-2,.58331E-3,0
STARLINK-32016,2024-117F,2026-06-27T04:00:03.000096,15.33520220,.0001192,53.1590,248.8175,104.1153,307.3319,0,U,60096,999,586,.12192E-2,.399E-3,0
STARLINK-32003,2024-117G,2026-06-26T22:20:50.288640,15.30180280,.0001246,53.1595,249.5798,84.7665,275.3477,0,U,60097,999,11361,.78267E-6,-.336E-5,0
STARLINK-32026,2024-117H,2026-06-27T04:00:03.000096,15.33658493,.0000956,53.1602,248.5387,23.8625,167.7679,0,U,60098,999,570,.24057E-1,.862981E-2,0
STARLINK-31732,2024-117J,2026-06-26T21:47:24.474624,15.30188870,.0000971,53.1604,249.4321,103.1221,256.9888,0,U,60099,999,11361,-.23016E-4,-.104E-4,0
STARLINK-31996,2024-117K,2026-06-27T04:00:03.000096,15.33528023,.0001036,53.1596,248.3006,91.7314,219.8341,0,U,60100,999,570,.14176E-2,.46508E-3,0
STARLINK-31999,2024-117L,2026-06-26T22:00:01.998720,15.33558142,.0001178,53.1584,249.9358,102.6548,32.3010,0,U,60101,999,587,-.29577E-3,-.1009E-3,0
STARLINK-31954,2024-117M,2026-06-26T21:29:20.256576,15.30196053,.0001097,53.1595,250.0686,86.2862,273.8264,0,U,60102,999,11360,-.31542E-4,-.1293E-4,0
STARLINK-32013,2024-117N,2026-06-26T21:24:46.312416,15.30194687,.0000992,53.1592,250.0485,90.0512,270.0603,0,U,60103,999,11360,-.37078E-4,-.1457E-4,0
STARLINK-32009,2024-117P,2026-06-26T19:33:29.451744,15.34377745,.00012878,53.1589,250.2512,60.2907,299.8223,0,U,60104,999,11359,.15399632E-4,.144E-5,0
STARLINK-32018,2024-117Q,2026-06-26T22:10:47.491392,15.34383627,.0001224,53.1591,249.5372,92.6945,267.4197,0,U,60105,999,11361,-.33455E-4,-.1506E-4,0
STARLINK-32045,2024-117R,2026-06-26T22:01:41.179872,15.34404041,.000112,53.1600,249.4983,97.6791,262.4338,0,U,60106,999,11361,.29251E-3,.952E-4,0
STARLINK-32035,2024-117S,2026-06-27T04:00:03.000096,15.30185151,.0001174,53.1589,248.5526,95.1645,88.4039,0,U,60107,999,554,.1368E-2,.40359E-3,0
STARLINK-32042,2024-117T,2026-06-26T22:16:17.028768,15.30180450,.0000978,53.1590,249.5564,94.8002,265.3111,0,U,60108,999,11361,-.38954E-4,-.1512E-4,0
STARLINK-32040,2024-117U,2026-06-26T21:50:26.718144,15.30173408,.0001165,53.1599,249.4514,98.0743,262.0390,0,U,60109,999,11361,.70598E-4,.1731E-4,0
STARLINK-32001,2024-117V,2026-06-27T04:00:03.000096,15.34225072,.0002709,53.1591,248.2839,118.7635,200.1832,0,U,60110,999,575,.32548E-2,.110611E-2,0
STARLINK-32015,2024-117W,2026-06-26T21:53:29.958720,15.30172607,.0000983,53.1593,249.4551,98.3570,261.7542,0,U,60111,999,11361,-.74251E-4,-.2555E-4,0
STARLINK-32024,2024-117X,2026-06-26T22:11:43.539072,15.30183374,.0001261,53.1606,249.5345,102.0310,258.0832,0,U,60112,999,11361,-.19737E-4,-.943E-5,0
STARLINK-11201 [DTC],2024-118A,2026-06-26T21:53:13.998048,15.69712964,.0000867,53.1591,43.1496,75.6715,284.4399,0,U,60113,999,11514,-.22815E-5,-.865E-5,0
STARLINK-11198 [DTC],2024-118B,2026-06-26T21:46:10.761600,15.69710111,.0000556,53.1585,43.1175,96.8593,263.2488,0,U,60114,999,11514,-.15638E-5,-.777E-5,0
STARLINK-11112 [DTC],2024-118C,2026-06-26T21:39:06.343200,15.69697340,.0000726,53.1581,43.0851,58.5476,301.5613,0,U,60115,999,11514,.10276E-4,.656E-5,0
STARLINK-11210 [DTC],2024-118D,2026-06-26T21:32:02.651424,15.69713345,.0000779,53.1611,43.0565,67.4597,292.6504,0,U,60116,999,11514,-.65368E-5,-.138E-4,0
STARLINK-11203 [DTC],2024-118E,2026-06-26T21:24:58.737600,15.69709922,.0000714,53.1591,43.0202,114.8284,245.2808,0,U,60117,999,11514,-.1354E-7,-.59E-5,0
STARLINK-11177 [DTC],2024-118F,2026-06-26T21:17:55.194432,15.69705615,.00008374,53.1584,42.9871,82.9252,277.1861,0,U,60118,999,11514,.1865936E-5,-.362E-5,0
STARLINK-11127 [DTC],2024-118G,2026-06-26T21:10:51.017088,15.69702859,.000027,53.1592,42.9529,291.5744,68.5245,0,U,60119,999,11514,-.12798E-5,-.742E-5,0
